{
"type": "FeatureCollection",
"name": "depth0-1_EPSG32630",
"crs": { "type": "name", "properties": { "name": "urn:ogc:def:crs:EPSG::32630" } },
"features": [
{ "type": "Feature", "properties": { "id": null }, "geometry": { "type": "MultiPolygon", "coordinates": [ [ [ [ 688766.973699711030349, 4176841.592870695982128 ], [ 688776.257283293642104, 4177245.091619404032826 ], [ 689052.154226903105155, 4177487.63597326586023 ], [ 689157.244387205457315, 4177784.616630029864609 ], [ 689396.538216835586354, 4178044.834724693093449 ], [ 689621.051264456124045, 4178357.373992564622313 ], [ 689713.731030436698347, 4178602.848600007593632 ], [ 689697.199606891255826, 4178830.157604491803795 ], [ 689689.656015824293718, 4179108.903597329743207 ], [ 689633.135596132371575, 4179355.215579466428608 ], [ 689789.39379211992491, 4179538.11731005879119 ], [ 689864.373182671028189, 4179864.302252768538892 ], [ 690201.762943478533998, 4180227.847920244093984 ], [ 690614.38098514592275, 4180415.265215204562992 ], [ 690685.888597775599919, 4180547.842283588834107 ], [ 690811.392652429058217, 4180641.824246466625482 ], [ 690982.44390962657053, 4180623.017725406214595 ], [ 691073.563458395423368, 4180494.206979676149786 ], [ 691154.039035735651851, 4180678.227399932220578 ], [ 691248.081279567210004, 4180764.371252966113389 ], [ 691581.834345148177817, 4180940.048382982611656 ], [ 691656.510879458277486, 4181081.24741474352777 ], [ 691806.375612394418567, 4181195.735724687576294 ], [ 692113.867258002050221, 4181527.364897154737264 ], [ 692550.861625900026411, 4182184.98618360189721 ], [ 692975.001818571588956, 4182726.204688005615026 ], [ 693257.460192572092637, 4182884.626853882335126 ], [ 693464.375939957797527, 4183145.735781674738973 ], [ 693624.540115827927366, 4183500.444578630384058 ], [ 693783.567475149757229, 4183782.48419525148347 ], [ 693839.245520887547173, 4184056.163549090269953 ], [ 693787.542881047120318, 4184333.2442572475411 ], [ 693741.603770607733168, 4184578.836088876239955 ], [ 693781.693544089444913, 4184794.828696735668927 ], [ 693661.375450951280072, 4185142.726597897708416 ], [ 693585.469579043798149, 4185584.952616640366614 ], [ 693595.830399736529216, 4185707.573176212143153 ], [ 693667.946272406028584, 4185842.094920157920569 ], [ 693724.534581472398713, 4186009.469185456633568 ], [ 693752.764271352556534, 4186236.240681731607765 ], [ 694003.739340125815943, 4186619.453508303035051 ], [ 694144.873690128326416, 4186978.791276059579104 ], [ 694413.458885317202657, 4187246.766635686159134 ], [ 694772.983975730487145, 4187366.82163380086422 ], [ 695184.172198344371282, 4187407.339239429682493 ], [ 695246.093389478279278, 4187747.516605712007731 ], [ 695483.282969165826216, 4187883.359282247722149 ], [ 695732.997097638435662, 4187781.864790223538876 ], [ 695984.585230437573045, 4187457.688283126335591 ], [ 696599.378178008249961, 4186393.615996093023568 ], [ 696709.523591880919412, 4185565.128993249498308 ], [ 696779.17359005252365, 4184890.865877168253064 ], [ 697008.811304787057452, 4184314.449586370959878 ], [ 697183.589831880293787, 4183724.073742576874793 ], [ 697531.552569710300304, 4183310.619982341304421 ], [ 697701.11381025146693, 4183078.67192372540012 ], [ 697794.893205448752269, 4182787.528136637993157 ], [ 698063.260164960054681, 4182244.639700214378536 ], [ 698089.945308398688212, 4181792.717515247408301 ], [ 698226.338171839248389, 4181477.211314458400011 ], [ 698575.465619712020271, 4180867.967869246844202 ], [ 698396.564122208743356, 4180320.012345459777862 ], [ 698615.621758984867483, 4179576.707772293128073 ], [ 698869.206470581004396, 4178989.11587746348232 ], [ 698811.877677045646124, 4178450.096166577190161 ], [ 698855.763398159644566, 4178147.95424696803093 ], [ 698808.861873724730685, 4177741.608290440868586 ], [ 698667.060667957412079, 4177371.334477227646858 ], [ 698726.413149703643285, 4176784.527921731118113 ], [ 698554.128158459905535, 4176188.530891378875822 ], [ 698750.969302305486053, 4174989.692176902201027 ], [ 698895.986713734688237, 4173797.740960928611457 ], [ 699477.179967233794741, 4172209.697733349632472 ], [ 699654.210249205469154, 4171303.157784451730549 ], [ 699546.354279607301578, 4170950.865722448099405 ], [ 699233.488154177553952, 4170788.806532281450927 ], [ 699105.243228670675308, 4170476.691950641572475 ], [ 699202.555490515427664, 4170194.407894894480705 ], [ 699490.001588411745615, 4170071.22213702602312 ], [ 699915.489132476504892, 4170122.159794033970684 ], [ 699995.951792104635388, 4170270.486672133207321 ], [ 700184.123174423817545, 4170242.511265275068581 ], [ 700416.187449296936393, 4170004.163868397008628 ], [ 700603.469495882629417, 4169480.104810834862292 ], [ 700719.638069004169665, 4169222.689292676281184 ], [ 700705.181348453159444, 4169019.030673841014504 ], [ 700583.657054638140835, 4168430.557332938537002 ], [ 700369.262025959091261, 4167937.425405405461788 ], [ 700102.911005147499964, 4167719.541230145841837 ], [ 699670.835739622707479, 4167668.443107003346086 ], [ 699275.776545639149845, 4167691.448947498109192 ], [ 698807.864995139651, 4167785.912406161427498 ], [ 698623.76750946464017, 4167911.605970134958625 ], [ 698495.185570528497919, 4167999.781282123643905 ], [ 698626.361260892124847, 4168192.679716309998184 ], [ 698619.531985707581043, 4168477.141671465244144 ], [ 698374.764639869565144, 4168616.744063661899418 ], [ 698045.50490031845402, 4168564.580040935892612 ], [ 697856.874311760999262, 4168610.666312202811241 ], [ 697732.307626226800494, 4168772.137445206288248 ], [ 697240.819683489971794, 4168924.852688437793404 ], [ 696999.310313113732263, 4169140.470547706820071 ], [ 696650.996620826888829, 4169195.431153380312026 ], [ 696363.82611264125444, 4169428.955321096349508 ], [ 696058.966065679327585, 4169560.870552250184119 ], [ 695465.848266818444245, 4169761.876501318532974 ], [ 694998.446372780483216, 4169750.841612200252712 ], [ 694668.493977543897927, 4169882.214260771870613 ], [ 694306.46767742279917, 4170095.068430359475315 ], [ 694037.144069213420153, 4170215.240144828800112 ], [ 693745.801159717491828, 4170417.126601328607649 ], [ 693444.126321644987911, 4170631.430302985943854 ], [ 693276.223993627820164, 4170931.092989081051201 ], [ 692641.476945363450795, 4171415.93220586841926 ], [ 692156.068278693943284, 4171967.53459134278819 ], [ 692067.449139060918242, 4172319.660047153942287 ], [ 691813.191900346428156, 4172661.61405260162428 ], [ 691497.35089309560135, 4173059.069444061256945 ], [ 691179.881115157506429, 4173311.029098822269589 ], [ 691031.618291239021346, 4173636.48368375794962 ], [ 690650.902103524305858, 4174234.857269431930035 ], [ 690539.292480189702474, 4174497.918346983380616 ], [ 690290.620281517738476, 4174821.067188369110227 ], [ 689862.547107121441513, 4175298.211128252092749 ], [ 689390.049417015048675, 4175742.731727779842913 ], [ 688766.973699711030349, 4176841.592870695982128 ] ], [ [ 693458.575059169903398, 4174951.619342006742954 ], [ 693598.004609540919773, 4175220.531624994240701 ], [ 693901.702124251518399, 4175341.507451612967998 ], [ 694141.0256554891821, 4175207.985500569455326 ], [ 694322.020712667610496, 4174990.873292362783104 ], [ 694325.145444566383958, 4174858.124303938355297 ], [ 694267.550470001879148, 4174742.920996386557817 ], [ 694320.307469445629977, 4174636.63959942618385 ], [ 694335.560604014317505, 4174415.627842063549906 ], [ 694183.119034302886575, 4174272.894217099994421 ], [ 694041.285124634043314, 4174320.158874917775393 ], [ 693962.078896797960624, 4174482.744275572709739 ], [ 693810.181773865362629, 4174744.821283794008195 ], [ 693567.607320546288975, 4174802.378833260387182 ], [ 693458.575059169903398, 4174951.619342006742954 ] ], [ [ 696271.61553588276729, 4175214.094569738954306 ], [ 696080.091148819075897, 4175026.118851305451244 ], [ 695965.999899475136772, 4174751.436382086481899 ], [ 695953.259921735501848, 4174441.211053237318993 ], [ 696019.838500106474385, 4174177.143138349056244 ], [ 696228.125011679832824, 4173872.166829361580312 ], [ 696564.931951521662995, 4173658.802348317578435 ], [ 696933.956758132902905, 4173781.443394375033677 ], [ 697271.925362057751045, 4173941.309787832200527 ], [ 697147.441628476604819, 4174102.787321606650949 ], [ 697141.404749362613074, 4174355.643668581265956 ], [ 696986.988021623925306, 4174718.808797562960535 ], [ 696782.307175257126801, 4174872.052768658846617 ], [ 696656.791747872252017, 4175077.786827657371759 ], [ 696490.80132147774566, 4175295.208892645314336 ], [ 696271.61553588276729, 4175214.094569738954306 ] ], [ [ 698435.837236281484365, 4171127.663565562106669 ], [ 698425.799523756606504, 4171048.359592144843191 ], [ 698482.176291189389303, 4171003.856551401782781 ], [ 698537.680659224279225, 4170995.701912870630622 ], [ 698593.833963576355018, 4171012.863420862238854 ], [ 698653.776372297783382, 4171055.416590076405555 ], [ 698695.902406198321842, 4171107.029526257421821 ], [ 698641.561362626729533, 4171145.255019422620535 ], [ 698570.451143337180838, 4171175.171656367834657 ], [ 698496.940882717259228, 4171174.196640714071691 ], [ 698435.837236281484365, 4171127.663565562106669 ] ], [ [ 699196.008353109704331, 4171531.777808425948024 ], [ 699239.593717599171214, 4171600.823085014242679 ], [ 699249.432631377596408, 4171661.939245482906699 ], [ 699293.322397797834128, 4171692.251056843437254 ], [ 699352.516590504907072, 4171661.26263495022431 ], [ 699395.171994801727124, 4171612.481556866783649 ], [ 699431.545725539792329, 4171589.640104600228369 ], [ 699435.792170039727353, 4171543.8856350351125 ], [ 699412.078785726102069, 4171484.806325752288103 ], [ 699361.849946403177455, 4171456.712938191369176 ], [ 699300.086081640562043, 4171437.829349182080477 ], [ 699250.122786441352218, 4171424.765163260512054 ], [ 699216.128048589569516, 4171453.199210173916072 ], [ 699197.017721401993185, 4171489.898461734876037 ], [ 699196.008353109704331, 4171531.777808425948024 ] ] ] ] } }
]
}
