{
"type": "FeatureCollection",
"name": "depth2-3_EPSG32630",
"crs": { "type": "name", "properties": { "name": "urn:ogc:def:crs:EPSG::32630" } },
"features": [
{ "type": "Feature", "properties": { "id": null }, "geometry": { "type": "MultiPolygon", "coordinates": [ [ [ [ 688822.759559730999172, 4176839.791449867188931 ], [ 688858.916825799969956, 4177154.359664667863399 ], [ 689032.471702931099571, 4177255.600009660702199 ], [ 689148.174954351969063, 4177447.233519826550037 ], [ 689310.882651662454009, 4177707.565835523419082 ], [ 689396.538216835586354, 4178044.834724693093449 ], [ 689661.608132531633601, 4178333.086538516916335 ], [ 689713.731030436698347, 4178602.848600007593632 ], [ 689820.700103235198185, 4178944.144335084129125 ], [ 689777.311383952386677, 4179128.546392035670578 ], [ 689748.3855710971402, 4179302.101269166916609 ], [ 689925.556174835306592, 4179479.271872905083001 ], [ 690070.18523911118973, 4179782.992907884530723 ], [ 690225.661483207950369, 4180083.098216257523745 ], [ 690681.243035677238367, 4180339.814805347006768 ], [ 690717.400301746209152, 4180448.286603554151952 ], [ 690793.330560491187498, 4180527.832588905934244 ], [ 690894.570905484375544, 4180531.448315512854606 ], [ 691053.662876187940128, 4180477.212416409514844 ], [ 691154.903221181128174, 4180603.762847650796175 ], [ 691266.990745994960889, 4180694.156012823339552 ], [ 691404.38835705711972, 4180708.618919251020998 ], [ 691530.938788298633881, 4180708.618919251020998 ], [ 691643.026313112583011, 4180817.090717458166182 ], [ 691878.048542561009526, 4180874.942343168426305 ], [ 692037.140513264574111, 4181012.33995423046872 ], [ 692167.306671112892218, 4181420.917060810141265 ], [ 692586.730957513209432, 4182082.595029872842133 ], [ 692973.613704451476224, 4182512.866496094036847 ], [ 693223.098840327584185, 4182693.652826438657939 ], [ 693479.815429417416453, 4182849.129070535767823 ], [ 693736.532018507248722, 4183438.492507460061461 ], [ 693751.898856581770815, 4183682.102087612263858 ], [ 693830.54091028671246, 4183749.444995653349906 ], [ 693928.165528672980145, 4183843.453887432813644 ], [ 693957.091341528226621, 4184045.934577419422567 ], [ 693975.169974562712014, 4184111.017656343057752 ], [ 693971.554247955791652, 4184161.637828839942813 ], [ 693989.632880990277044, 4184212.258001336362213 ], [ 694014.94296723860316, 4184299.035439902450889 ], [ 694033.021600273088552, 4184371.349972039926797 ], [ 694043.868780093849637, 4184458.127410605549812 ], [ 693953.47561492130626, 4184830.547251116018742 ], [ 693913.702622245415114, 4185210.198544840794057 ], [ 693797.999370824662037, 4185409.063508220016956 ], [ 693664.217486369307153, 4185589.84983856510371 ], [ 693641.619195071398281, 4185668.943858105689287 ], [ 693703.990479040425271, 4185710.524714084807783 ], [ 693740.147745109512471, 4185812.668990729842335 ], [ 693830.54091028671246, 4185936.95959282759577 ], [ 693942.628435100661591, 4186052.662844248116016 ], [ 694083.641772769740783, 4186291.300800303462893 ], [ 694112.567585624870844, 4186566.096022428013384 ], [ 694289.738189362920821, 4186920.437229904346168 ], [ 694506.681785776978359, 4187191.616725421510637 ], [ 694772.983975730487145, 4187366.82163380086422 ], [ 694969.494791460107081, 4187310.935703449416906 ], [ 695184.172198344371282, 4187407.339239429682493 ], [ 695305.757365901721641, 4187495.337760401424021 ], [ 695446.770703570800833, 4187650.814004498068243 ], [ 695573.321134812198579, 4187603.809558608569205 ], [ 695736.028832122683525, 4187368.787329159677029 ], [ 695797.496184439980425, 4187155.459459352772683 ], [ 695775.801824798574671, 4186714.340813310816884 ], [ 695826.421997295110486, 4186316.610886551905423 ], [ 695725.181652301922441, 4185994.811218537855893 ], [ 696036.134140495327301, 4185647.701464275829494 ], [ 696216.920470840297639, 4185427.142141254618764 ], [ 696231.38337726786267, 4184819.700071295723319 ], [ 696538.720138854463585, 4184237.568087584804744 ], [ 696874.982713296078146, 4183771.139355294872075 ], [ 697005.148871144512668, 4183640.973197446204722 ], [ 697178.703748275642283, 4183586.73729834286496 ], [ 697222.092467558453791, 4183442.108234066981822 ], [ 697355.87435201369226, 4183196.238824797794223 ], [ 697486.040509862126783, 4183037.146854094229639 ], [ 697525.813502538017929, 4182878.054883390665054 ], [ 697674.058293420821428, 4182773.198811790440232 ], [ 697775.298638414009474, 4182505.635042879730463 ], [ 697843.997443945147097, 4182223.60836754180491 ], [ 697927.159155903849751, 4181898.192972920835018 ], [ 697974.16360179358162, 4181692.096556327305734 ], [ 698035.63095411087852, 4181605.319117761682719 ], [ 698107.945486248820089, 4181402.838427775539458 ], [ 698520.138319435412996, 4180856.863710133824497 ], [ 698396.564122208743356, 4180320.012345459777862 ], [ 698570.758491931948811, 4179627.5166637878865 ], [ 698570.758491932065226, 4179298.485542559996247 ], [ 698527.369772649253719, 4179041.768953470047563 ], [ 698433.360880869906396, 4178550.030134931672364 ], [ 698512.906866221688688, 4178090.832855855580419 ], [ 698588.837124966550618, 4177837.731993372552097 ], [ 698614.147211214876734, 4177707.565835523884743 ], [ 698512.906866221688688, 4177367.687534475699067 ], [ 698404.435068014659919, 4177165.206844489090145 ], [ 698404.435068014659919, 4176810.865637013223022 ], [ 698397.203614800935611, 4176409.5199836473912 ], [ 698111.561212855856866, 4176170.882027592044324 ], [ 698393.58788819401525, 4175802.077913688495755 ], [ 698415.282247835421003, 4175129.552764805033803 ], [ 698371.893528552609496, 4174963.229340887628496 ], [ 698397.203614800935611, 4174789.674463756382465 ], [ 698538.216952470014803, 4174290.704192004166543 ], [ 698661.151657104608603, 4174037.603329521138221 ], [ 698639.457297463202849, 4173741.113747755531222 ], [ 698729.85046263562981, 4173553.095964196603745 ], [ 698888.942433339194395, 4173422.929806348402053 ], [ 699058.881583863520063, 4173097.514411727432162 ], [ 699362.602618843084201, 4172302.05455820960924 ], [ 699434.91715098102577, 4172186.351306788623333 ], [ 699492.768776691518724, 4171763.311293781269342 ], [ 699654.210249205469154, 4171303.157784451730549 ], [ 699546.354279607301578, 4170950.865722448099405 ], [ 699233.488154177553952, 4170788.806532281450927 ], [ 699105.243228670675308, 4170476.691950641572475 ], [ 699202.555490515427664, 4170194.407894894480705 ], [ 699490.001588411745615, 4170071.22213702602312 ], [ 699915.489132476504892, 4170122.159794033970684 ], [ 699998.066570006776601, 4170058.044232802931219 ], [ 700126.424864551867358, 4169927.878074954263866 ], [ 700314.442648110794835, 4169904.375852009281516 ], [ 700446.416669262805954, 4169653.082852829713374 ], [ 700603.469495882629417, 4169480.104810834862292 ], [ 700719.638069004169665, 4169222.689292676281184 ], [ 700705.181348453159444, 4169019.030673841014504 ], [ 700408.451539890258573, 4168389.386403716634959 ], [ 700369.262025959091261, 4167937.425405405461788 ], [ 700102.911005147499964, 4167719.541230145841837 ], [ 699670.835739622707479, 4167668.443107003346086 ], [ 699275.776545639149845, 4167691.448947498109192 ], [ 698915.156451238435693, 4167805.446556702256203 ], [ 698741.601574107771739, 4167929.28519298741594 ], [ 698683.749948397395201, 4168039.564854498021305 ], [ 698660.247725452529266, 4168200.464688505511731 ], [ 698619.531985707581043, 4168477.141671465244144 ], [ 698374.764639869565144, 4168616.744063661899418 ], [ 698045.50490031845402, 4168564.580040935892612 ], [ 697856.874311760999262, 4168610.666312202811241 ], [ 697732.307626226800494, 4168772.137445206288248 ], [ 697240.819683489971794, 4168924.852688437793404 ], [ 697045.825795470038429, 4169172.191214110702276 ], [ 696650.996620826888829, 4169195.431153380312026 ], [ 696363.82611264125444, 4169428.955321096349508 ], [ 696058.966065679327585, 4169560.870552250184119 ], [ 695465.848266818444245, 4169761.876501318532974 ], [ 695092.429496094817296, 4169825.281832483131438 ], [ 694795.939914329093881, 4169980.758076579775661 ], [ 694629.616490411688574, 4170042.225428896956146 ], [ 694459.677339887362905, 4170150.69722710410133 ], [ 694202.960750797647052, 4170309.789197806734592 ], [ 694108.951859018299729, 4170411.029542800039053 ], [ 693888.392535997321829, 4170555.658607075922191 ], [ 693787.152191004133783, 4170627.97313921386376 ], [ 693646.138853335054591, 4170714.750577779486775 ], [ 693378.575084424577653, 4171011.240159545093775 ], [ 692875.98908606544137, 4171495.747524869628251 ], [ 692239.621203251183033, 4171987.486343408003449 ], [ 692067.449139060918242, 4172319.660047153942287 ], [ 691813.191900346428156, 4172661.61405260162428 ], [ 691520.091608478222042, 4173101.130138334352523 ], [ 691245.296386353787966, 4173328.920914568938315 ], [ 691118.745955112273805, 4173629.026222941931337 ], [ 690684.85876228439156, 4174236.468292900826782 ], [ 690713.784575139521621, 4174554.65223430795595 ], [ 690478.762345691095106, 4174673.971212335862219 ], [ 690290.620281517738476, 4174821.067188369110227 ], [ 689862.547107121441513, 4175298.211128252092749 ], [ 689498.900435221148655, 4175758.689194404520094 ], [ 689097.554781855316833, 4176351.668357935734093 ], [ 688822.759559730999172, 4176839.791449867188931 ] ], [ [ 693458.575059169903398, 4174951.619342006742954 ], [ 693497.894062451901846, 4175100.626951950602233 ], [ 693598.004609540919773, 4175220.531624994240701 ], [ 693901.702124251518399, 4175341.507451612967998 ], [ 694141.0256554891821, 4175207.985500569455326 ], [ 694322.020712667610496, 4174990.873292362783104 ], [ 694325.145444566383958, 4174858.124303938355297 ], [ 694315.048275611130521, 4174735.438564653508365 ], [ 694320.307469445629977, 4174636.63959942618385 ], [ 694372.899901321507059, 4174518.494968239683658 ], [ 694335.560604014317505, 4174415.627842063549906 ], [ 694311.432549004326575, 4174301.551371825393289 ], [ 694183.119034302886575, 4174272.894217099994421 ], [ 694041.285124634043314, 4174320.158874917775393 ], [ 693962.078896797960624, 4174482.744275572709739 ], [ 693750.994924934813753, 4174710.128478405531496 ], [ 693548.514234948437661, 4174753.517197688575834 ], [ 693458.575059169903398, 4174951.619342006742954 ] ], [ [ 696271.61553588276729, 4175214.094569738954306 ], [ 696080.091148819075897, 4175026.118851305451244 ], [ 695965.999899475136772, 4174751.436382086481899 ], [ 695953.259921735501848, 4174441.211053237318993 ], [ 696019.838500106474385, 4174177.143138349056244 ], [ 696228.125011679832824, 4173872.166829361580312 ], [ 696564.931951521662995, 4173658.802348317578435 ], [ 696933.956758132902905, 4173781.443394375033677 ], [ 697271.925362057751045, 4173941.309787832200527 ], [ 697147.441628476604819, 4174102.787321606650949 ], [ 697141.404749362613074, 4174355.643668581265956 ], [ 696986.988021623925306, 4174718.808797562960535 ], [ 696782.307175257126801, 4174872.052768658846617 ], [ 696656.791747872252017, 4175077.786827657371759 ], [ 696490.80132147774566, 4175295.208892645314336 ], [ 696271.61553588276729, 4175214.094569738954306 ] ], [ [ 698421.15780357143376, 4171130.559137573931366 ], [ 698401.723273059353232, 4171082.198794206604362 ], [ 698406.694897143868729, 4171038.810074923560023 ], [ 698445.11199234216474, 4170993.16152651142329 ], [ 698494.37626736110542, 4170971.467166870366782 ], [ 698592.000885747489519, 4170975.534859302919358 ], [ 698642.621058244025335, 4171013.499988675583154 ], [ 698693.241230740677565, 4171054.628878829069436 ], [ 698712.675761252758093, 4171112.028538713231683 ], [ 698705.896273864782415, 4171125.587513489183038 ], [ 698680.5861876164563, 4171139.59845409123227 ], [ 698641.561362626729533, 4171145.255019422620535 ], [ 698570.451143337180838, 4171175.171656367834657 ], [ 698537.313020818051882, 4171178.919480941258371 ], [ 698496.940882717259228, 4171174.196640714071691 ], [ 698456.411137988674454, 4171155.869223821908236 ], [ 698421.15780357143376, 4171130.559137573931366 ] ], [ [ 699177.296630239346996, 4171571.677783615887165 ], [ 699207.126374746207148, 4171627.721546022687107 ], [ 699238.763982556643896, 4171698.228214857168496 ], [ 699285.76842844625935, 4171719.922574498690665 ], [ 699344.523985808365978, 4171737.097275881562382 ], [ 699415.934586294693872, 4171728.961891015991569 ], [ 699442.148604194750078, 4171710.883257981389761 ], [ 699431.301424373988993, 4171650.319837315939367 ], [ 699463.842963836039416, 4171606.027186381630599 ], [ 699486.441255129175261, 4171553.599150581285357 ], [ 699449.380057408474386, 4171499.363251477945596 ], [ 699419.550312901614234, 4171462.30205375701189 ], [ 699369.834072056692094, 4171440.607694115955383 ], [ 699309.270651391125284, 4171418.009402822703123 ], [ 699245.995435770368204, 4171405.354359698481858 ], [ 699200.798853184096515, 4171430.664445946924388 ], [ 699174.584835284156725, 4171483.99641339853406 ], [ 699177.296630239346996, 4171571.677783615887165 ] ] ] ] } }
]
}
