{
"type": "FeatureCollection",
"name": "depth3-4_EPSG32630",
"crs": { "type": "name", "properties": { "name": "urn:ogc:def:crs:EPSG::32630" } },
"features": [
{ "type": "Feature", "properties": { "id": null }, "geometry": { "type": "MultiPolygon", "coordinates": [ [ [ [ 689089.419396989862435, 4176813.577431967481971 ], [ 689090.32332864147611, 4177107.355218777898699 ], [ 689172.581108948565088, 4177214.923085333313793 ], [ 689277.437180548673496, 4177381.2465092507191 ], [ 689418.450518217752688, 4177706.661903871688992 ], [ 689479.917870535049587, 4177815.133702078834176 ], [ 689639.009841238614172, 4177952.531313140876591 ], [ 689667.717712353100069, 4178091.839170582592487 ], [ 689758.32881926628761, 4178270.71525454800576 ], [ 689830.643351404229179, 4178559.973383100237697 ], [ 689808.948991762823425, 4178805.842792369425297 ], [ 689931.883696397417225, 4178925.161770396865904 ], [ 689936.403354655951262, 4179124.930665428750217 ], [ 689907.477541800704785, 4179298.485542559996247 ], [ 690094.591393708018586, 4179402.437682507559657 ], [ 690242.836184590938501, 4179575.992559638805687 ], [ 690311.534990122076124, 4179933.949493722058833 ], [ 690673.1076508120168, 4180143.661636922042817 ], [ 690774.347995805204846, 4180197.89753602584824 ], [ 690824.968168301740661, 4180241.286255308426917 ], [ 690893.666973832878284, 4180324.44796726712957 ], [ 691027.448858288116753, 4180346.142326908651739 ], [ 691193.77228220552206, 4180414.841132439672947 ], [ 691273.318267557304353, 4180577.548829750157893 ], [ 691410.715878619463183, 4180628.169002246577293 ], [ 691519.187676826491952, 4180635.400455460418016 ], [ 691671.048194316332228, 4180660.710541708860546 ], [ 691909.686150371679105, 4180671.557721529621631 ], [ 692195.32855231675785, 4180960.815850081387907 ], [ 692347.189069806714542, 4181304.309877736959606 ], [ 692690.683097462169826, 4181897.289041268639266 ], [ 693019.714218690060079, 4182320.329054275527596 ], [ 693308.972347242059186, 4182537.272650689817965 ], [ 693525.915943656000309, 4182725.29043424827978 ], [ 693732.012360249296762, 4183086.863094938453287 ], [ 693873.025697918375954, 4183466.51438866276294 ], [ 693930.877323628752492, 4183567.754733656067401 ], [ 694036.637326880008914, 4183734.98208922566846 ], [ 694065.56313973525539, 4183937.462779212277383 ], [ 694104.432200759882107, 4184030.567739339079708 ], [ 694126.126560401287861, 4184131.808084332384169 ], [ 694194.825365932425484, 4184225.816976111847907 ], [ 694230.982632001396269, 4184363.214587173890322 ], [ 694227.366905394592322, 4184453.607752346433699 ], [ 694245.445538429077715, 4184601.852543229237199 ], [ 694281.602804498048499, 4184768.175967146642506 ], [ 694274.371351284207776, 4185050.202642484568059 ], [ 694169.515279684099369, 4185274.377692112699151 ], [ 694165.899553077295423, 4185408.159576567821205 ], [ 694129.742287008208223, 4185527.478554595727473 ], [ 694068.274934690911323, 4185581.714453699067235 ], [ 694057.427754870266654, 4185639.566079409327358 ], [ 694079.122114511672407, 4185693.80197851266712 ], [ 694155.052373256534338, 4185813.120956540573388 ], [ 694274.371351284207776, 4185885.435488678514957 ], [ 694433.46332198777236, 4186134.920624554622918 ], [ 694390.074602704960853, 4186532.650551313534379 ], [ 694484.083494484424591, 4186695.358248624019325 ], [ 694607.018199119018391, 4186868.913125755265355 ], [ 694762.494443215662614, 4187046.083729493431747 ], [ 694845.656155174365267, 4187082.240995562169701 ], [ 694946.896500167553313, 4186937.611931286286563 ], [ 695239.770355326472782, 4186970.153470748569816 ], [ 695326.547793891979381, 4187038.852276279591024 ], [ 695471.176858167978935, 4187129.245441452134401 ], [ 695539.875663699116558, 4187118.398261631373316 ], [ 695583.264382981928065, 4187013.542190031148493 ], [ 695604.958742623217404, 4186713.436881658621132 ], [ 695615.805922443978488, 4186380.790033823810518 ], [ 695644.731735299224965, 4186048.143185988999903 ], [ 695691.736181188840419, 4185654.028985837008804 ], [ 695937.605590458028018, 4185339.460771036799997 ], [ 696096.697561161592603, 4184782.638873574323952 ], [ 696438.38372551347129, 4184211.354069685097784 ], [ 696620.977919161901809, 4183969.100387022830546 ], [ 696799.052454551216215, 4183762.100038778036833 ], [ 696884.925961465574801, 4183634.645675884559751 ], [ 697031.362889045034535, 4183526.173877677414566 ], [ 697125.371780824381858, 4183419.509942774195224 ], [ 697213.957082693465054, 4183238.723612429108471 ], [ 697315.1974276866531, 4183054.321555477101356 ], [ 697401.9748662521597, 4182887.998131558764726 ], [ 697564.682563562644646, 4182739.753340675961226 ], [ 697653.267865431727841, 4182562.582736937794834 ], [ 697731.005987480049953, 4182278.748198295943439 ], [ 697790.665476493886672, 4181937.062033943831921 ], [ 697904.560864611295983, 4181705.65553110325709 ], [ 697951.565310501027852, 4181591.760142986197025 ], [ 698041.958475673571229, 4181383.85586308920756 ], [ 698186.587539949454367, 4181101.829187751282007 ], [ 698457.767035466968082, 4180841.496872054412961 ], [ 698396.564122208743356, 4180320.012345459777862 ], [ 698542.736610729130916, 4179615.765552315395325 ], [ 698531.889430908369832, 4179322.891697156708688 ], [ 698499.347891446319409, 4179080.63801449444145 ], [ 698372.797460204805247, 4178787.76415933528915 ], [ 698374.605323508265428, 4178545.510476673021913 ], [ 698448.727718949667178, 4178095.352514114230871 ], [ 698512.002934570424259, 4177903.719003948848695 ], [ 698522.850114391068928, 4177710.277630479540676 ], [ 698455.959172163391486, 4177422.827365230768919 ], [ 698395.39575149747543, 4177177.86188761331141 ], [ 698360.142417080583982, 4176847.926834734156728 ], [ 698397.203614800935611, 4176409.5199836473912 ], [ 698007.609072907827795, 4176180.825275761075318 ], [ 698168.50890691485256, 4175971.113132561091334 ], [ 698340.255920742638409, 4175788.518938912544399 ], [ 698295.059338156483136, 4175416.099098401609808 ], [ 698266.133525301236659, 4175253.391401091124862 ], [ 698338.448057439178228, 4175141.303876277059317 ], [ 698351.103100563399494, 4174955.093956022057682 ], [ 698365.566006990964524, 4174767.076172463130206 ], [ 698499.347891446202993, 4174280.760943835135549 ], [ 698611.435416260152124, 4174027.660081352107227 ], [ 698591.548919922206551, 4173754.672722531482577 ], [ 698671.094905273988843, 4173516.034766476135701 ], [ 698859.112688832683489, 4173400.331515055149794 ], [ 699010.069274670444429, 4173095.706548423971981 ], [ 699186.335946757113561, 4172709.727733137551695 ], [ 699313.790309650008567, 4172300.24669490614906 ], [ 699387.008773440029472, 4172165.560878798831254 ], [ 699408.703133081318811, 4171919.691469529643655 ], [ 699414.126722991699353, 4171831.106167660560459 ], [ 699459.323305577971041, 4171766.023088736459613 ], [ 699552.428265705471858, 4171525.577269377652556 ], [ 699654.210249205469154, 4171303.157784451730549 ], [ 699546.354279607301578, 4170950.865722448099405 ], [ 699233.488154177553952, 4170788.806532281450927 ], [ 699105.243228670675308, 4170476.691950641572475 ], [ 699202.555490515427664, 4170194.407894894480705 ], [ 699490.001588411745615, 4170071.22213702602312 ], [ 699839.8785309541272, 4170074.766968359239399 ], [ 699912.193063092068769, 4169991.605256400536746 ], [ 700024.2805879060179, 4169886.749184800311923 ], [ 700150.831019147415645, 4169760.198753559030592 ], [ 700342.464529313147068, 4169626.416869103442878 ], [ 700396.700428416603245, 4169478.172078220639378 ], [ 700454.552054126979783, 4169235.91839555837214 ], [ 700512.403679837472737, 4169037.05343217914924 ], [ 700353.311709133791737, 4168386.222642937209457 ], [ 700331.617349492502399, 4167948.71972350217402 ], [ 700100.21084665087983, 4167775.164846370927989 ], [ 699677.170833643642254, 4167702.85031423298642 ], [ 699344.52398580883164, 4167760.701939943246543 ], [ 699087.807396718999371, 4167861.942284936551005 ], [ 698982.951325118890963, 4167952.335450109094381 ], [ 698939.562605836079456, 4168078.885881350841373 ], [ 698784.086361739435233, 4168212.667765805963427 ], [ 698619.531985707581043, 4168477.141671465244144 ], [ 698374.764639869565144, 4168616.744063661899418 ], [ 698074.500015135272406, 4168613.109487519599497 ], [ 697893.713684790302068, 4168667.345386622939259 ], [ 697732.307626226800494, 4168772.137445206288248 ], [ 697333.276060720905662, 4168996.376507850829512 ], [ 697069.32801841723267, 4169188.010018016211689 ], [ 696743.912623796262778, 4169256.708823547698557 ], [ 696451.03876863734331, 4169433.879427285399288 ], [ 696058.966065679327585, 4169560.870552250184119 ], [ 695465.848266818444245, 4169761.876501318532974 ], [ 695232.538902112166397, 4169853.303713685832918 ], [ 694943.280773560283706, 4169997.932777961716056 ], [ 694769.725896429037675, 4170095.557396348100156 ], [ 694614.249652332393453, 4170185.950561520643532 ], [ 694353.917336635640822, 4170334.195352403447032 ], [ 694198.441092538880184, 4170460.74578364379704 ], [ 693988.728949338779785, 4170587.296214885544032 ], [ 693887.488604345591739, 4170692.152286485303193 ], [ 693706.702274000621401, 4170807.855537906289101 ], [ 693511.453037227969617, 4171086.266486637759954 ], [ 692998.019859048305079, 4171541.848039106931537 ], [ 692449.333346451399848, 4172074.263781973626465 ], [ 692277.161282261135057, 4172406.437485719565302 ], [ 691993.978230691398494, 4172676.076959029305726 ], [ 691848.218798054149374, 4173147.230652570258826 ], [ 691392.637245584861375, 4173400.331515053287148 ], [ 691211.850915239891037, 4173729.362636282108724 ], [ 691009.370225253514946, 4174004.157858406659216 ], [ 691049.143217929406092, 4174264.490174103528261 ], [ 691056.374671143130399, 4174701.993093538098037 ], [ 690626.103204922168516, 4174817.696344959083945 ], [ 690383.849522259901278, 4174947.862502807285637 ], [ 690004.198228535358794, 4175363.671062600798905 ], [ 689906.57361014909111, 4175710.780816863290966 ], [ 689649.857021059258841, 4175844.562701318413019 ], [ 689187.044015376130119, 4176441.157591457013041 ], [ 689089.419396989862435, 4176813.577431967481971 ] ], [ [ 693458.575059169903398, 4174951.619342006742954 ], [ 693497.894062451901846, 4175100.626951950602233 ], [ 693598.004609540919773, 4175220.531624994240701 ], [ 693901.702124251518399, 4175341.507451612967998 ], [ 694141.0256554891821, 4175207.985500569455326 ], [ 694322.020712667610496, 4174990.873292362783104 ], [ 694325.145444566383958, 4174858.124303938355297 ], [ 694315.048275611130521, 4174735.438564653508365 ], [ 694320.307469445629977, 4174636.63959942618385 ], [ 694372.899901321507059, 4174518.494968239683658 ], [ 694335.560604014317505, 4174415.627842063549906 ], [ 694311.432549004326575, 4174301.551371825393289 ], [ 694183.119034302886575, 4174272.894217099994421 ], [ 694041.285124634043314, 4174320.158874917775393 ], [ 693962.078896797960624, 4174482.744275572709739 ], [ 693750.994924934813753, 4174710.128478405531496 ], [ 693548.514234948437661, 4174753.517197688575834 ], [ 693458.575059169903398, 4174951.619342006742954 ] ], [ [ 696271.61553588276729, 4175214.094569738954306 ], [ 696080.091148819075897, 4175026.118851305451244 ], [ 695965.999899475136772, 4174751.436382086481899 ], [ 695953.259921735501848, 4174441.211053237318993 ], [ 696019.838500106474385, 4174177.143138349056244 ], [ 696228.125011679832824, 4173872.166829361580312 ], [ 696564.931951521662995, 4173658.802348317578435 ], [ 696933.956758132902905, 4173781.443394375033677 ], [ 697271.925362057751045, 4173941.309787832200527 ], [ 697147.441628476604819, 4174102.787321606650949 ], [ 697141.404749362613074, 4174355.643668581265956 ], [ 696986.988021623925306, 4174718.808797562960535 ], [ 696782.307175257126801, 4174872.052768658846617 ], [ 696656.791747872252017, 4175077.786827657371759 ], [ 696490.80132147774566, 4175295.208892645314336 ], [ 696271.61553588276729, 4175214.094569738954306 ] ], [ [ 698415.282247835537419, 4171145.022044001612812 ], [ 698380.028913418296725, 4171107.056914628949016 ], [ 698376.413186811376363, 4171047.397425615228713 ], [ 698413.474384532077238, 4170986.834004949778318 ], [ 698480.36532675975468, 4170940.733490711543709 ], [ 698599.684304787428118, 4170940.733490711543709 ], [ 698669.287041970179416, 4170985.930073298048228 ], [ 698709.512000471819192, 4171046.493493963498622 ], [ 698728.94653098389972, 4171103.893153847660869 ], [ 698737.081915849586949, 4171127.847342618741095 ], [ 698709.963966297800653, 4171148.637770608533174 ], [ 698658.439862149534747, 4171156.773155473638326 ], [ 698599.684304787428118, 4171175.755720159970224 ], [ 698564.430970370187424, 4171186.602899980731308 ], [ 698511.099002918344922, 4171192.026489891111851 ], [ 698465.902420332073234, 4171174.851788508240134 ], [ 698415.282247835537419, 4171145.022044001612812 ] ], [ [ 699153.794407294713892, 4171557.214877188205719 ], [ 699180.912356846267357, 4171627.721546022687107 ], [ 699212.549964656704105, 4171698.228214857168496 ], [ 699250.515094029367901, 4171731.67368597118184 ], [ 699327.349284425959922, 4171774.158473602030426 ], [ 699424.069971160497516, 4171760.599498826079071 ], [ 699442.148604194750078, 4171710.883257981389761 ], [ 699469.266553746769205, 4171683.76530842948705 ], [ 699486.441255129524507, 4171645.800179057288915 ], [ 699534.349632670986466, 4171550.887355626095086 ], [ 699496.384503298439085, 4171496.651456522755325 ], [ 699451.187920712283812, 4171460.49419045355171 ], [ 699388.816636743256822, 4171431.568377598654479 ], [ 699320.117831212119199, 4171406.258291350211948 ], [ 699261.362273850012571, 4171384.563931708689779 ], [ 699189.951673363801092, 4171406.258291350211948 ], [ 699158.314065553364344, 4171468.629575319122523 ], [ 699153.794407294713892, 4171557.214877188205719 ] ] ] ] } }
]
}
