{
"type": "FeatureCollection",
"name": "marmenor_polygon",
"crs": { "type": "name", "properties": { "name": "urn:ogc:def:crs:EPSG::32630" } },
"features": [
{ "type": "Feature", "properties": { "id": 1 }, "geometry": { "type": "MultiPolygon", "coordinates": [ [ [ [ 691632.469518701545894, 4180993.126146489754319 ], [ 691745.248284555156715, 4181184.322666201740503 ], [ 692332.741698650061153, 4181898.395310323685408 ], [ 692972.515804519760422, 4182685.506857637315989 ], [ 693395.134035254013725, 4183117.380148288328201 ], [ 693638.141171712661162, 4183518.098237476777285 ], [ 693852.721734885592014, 4183976.485711129847914 ], [ 693752.241383793880232, 4184606.955253660213202 ], [ 693606.663999284384772, 4185622.246905334759504 ], [ 693776.887518921634182, 4186048.066505859605968 ], [ 693901.149473864701577, 4186320.225434842053801 ], [ 694081.147064602468163, 4186903.288072529714555 ], [ 694465.778850215720013, 4187265.75086999963969 ], [ 694773.019616341451183, 4187368.316221157554537 ], [ 695164.029330966295674, 4187408.994059001095593 ], [ 695230.965131422854029, 4187625.9362075724639 ], [ 695219.411271224729717, 4187874.627312245778739 ], [ 695304.34588573302608, 4187950.698366765864193 ], [ 695673.560774185345508, 4187959.478306074161083 ], [ 695800.684677348472178, 4187729.213789726607502 ], [ 695936.82116765761748, 4187499.15900973463431 ], [ 696910.783405778347515, 4185960.943853316362947 ], [ 696932.990953406668268, 4185597.984643237665296 ], [ 696819.109564020880498, 4185272.143414292018861 ], [ 696884.853671717690304, 4184973.027515016961843 ], [ 696947.922339135664515, 4184597.538239275570959 ], [ 697044.670633434434421, 4184321.582135741598904 ], [ 697135.208591203903779, 4183928.767253253143281 ], [ 697449.394049876835197, 4183608.626312664244324 ], [ 697623.816471812082455, 4183478.148228679783642 ], [ 697962.854750288766809, 4182875.790837439708412 ], [ 698108.380106603377499, 4182448.320068505592644 ], [ 698165.959735724725761, 4181928.91918136132881 ], [ 698249.070302714477293, 4181472.959220075514168 ], [ 698430.466473014792427, 4181055.262149855028838 ], [ 698669.347141957841814, 4180872.429529909975827 ], [ 698514.246190349804237, 4180572.328585266135633 ], [ 698453.377859696862288, 4180103.845498863141984 ], [ 698617.862904816283844, 4179640.764019864611328 ], [ 698956.249553064350039, 4179074.063979452010244 ], [ 698988.445169723127037, 4178113.65726127428934 ], [ 698892.592182788066566, 4177599.267755212727934 ], [ 698726.16765900910832, 4176642.890059414785355 ], [ 698589.722081317333505, 4175938.738268193788826 ], [ 698571.309242427931167, 4175578.853658603038639 ], [ 698756.877929416485131, 4175367.647471716161817 ], [ 698879.752996254246682, 4175136.955153744202107 ], [ 698944.691328009241261, 4174689.17068008100614 ], [ 699065.489903279114515, 4174170.806475271470845 ], [ 698867.752882974222302, 4173761.582070162054151 ], [ 699162.704373284475878, 4173508.02670831233263 ], [ 699391.790669331909157, 4172992.202665244229138 ], [ 699689.271653741132468, 4172262.248280496802181 ], [ 699720.9972589306999, 4171696.631439412944019 ], [ 699676.409580613835715, 4171299.961881373077631 ], [ 699661.191554287914187, 4171042.224573920015246 ], [ 699995.183793968637474, 4170672.657969686202705 ], [ 700285.373844977235422, 4170456.013655790127814 ], [ 700573.724181091994978, 4170413.547135062981397 ], [ 700683.028832811978646, 4170002.557737017050385 ], [ 700710.593955305754207, 4169238.834636775311083 ], [ 700839.061156322015449, 4168783.283866277895868 ], [ 700559.80316408816725, 4168380.774493681732565 ], [ 700567.865671240258962, 4168048.179114515893161 ], [ 700224.069276163936593, 4167698.054479751735926 ], [ 699631.284046021522954, 4167557.804121462162584 ], [ 698995.452302922261879, 4167704.397094265092164 ], [ 698664.849472103873268, 4167930.31290633417666 ], [ 698685.887202918995172, 4168182.659423409029841 ], [ 698631.256206154357642, 4168577.082951215095818 ], [ 698268.900912480079569, 4168622.352828702889383 ], [ 697916.437214548932388, 4168631.9000947419554 ], [ 697620.288942253915593, 4168930.597730004228652 ], [ 697304.802900124923326, 4168905.079849194735289 ], [ 696644.663013170589693, 4169321.024604182690382 ], [ 696235.948897465132177, 4169419.22932306304574 ], [ 695948.834998929291032, 4169340.480511999689043 ], [ 695870.669885192299262, 4169590.420457255560905 ], [ 695587.058182095875964, 4169745.569619305897504 ], [ 695136.224411575589329, 4169716.934481326490641 ], [ 694077.914694372331724, 4170177.590676409192383 ], [ 693084.156284579308704, 4170972.515237118583173 ], [ 692529.337800863548182, 4171534.954722033813596 ], [ 692067.116235311958008, 4172000.655286436900496 ], [ 692058.345104709267616, 4172378.000568155664951 ], [ 691808.49019487912301, 4172641.863430259283632 ], [ 691697.518155079334974, 4172756.140644645318389 ], [ 691188.017098323092796, 4173319.583491809200495 ], [ 690716.633737609372474, 4174189.457186453975737 ], [ 689640.591893051518127, 4175458.690232862718403 ], [ 689065.798855631379411, 4176128.372892266139388 ], [ 688767.775937297497876, 4176534.837575283832848 ], [ 688697.370714931515977, 4176938.880692329257727 ], [ 688812.813185078091919, 4177326.447904050350189 ], [ 689084.386488968040794, 4177591.664461986161768 ], [ 689312.333287406363524, 4177966.715887275058776 ], [ 689480.335210655233823, 4178114.297638447023928 ], [ 689682.948042433243245, 4178325.554050492588431 ], [ 689608.346621941076592, 4178431.626906733494252 ], [ 689717.284596331417561, 4178793.417830496095121 ], [ 689820.897620852803811, 4179000.684236466418952 ], [ 689705.51019919058308, 4179305.101645287126303 ], [ 689989.352068859850988, 4180031.092718014493585 ], [ 690331.335640624864027, 4180325.386346181388944 ], [ 690852.775291313184425, 4180468.579060583375394 ], [ 691632.469518701545894, 4180993.126146489754319 ] ], [ [ 695993.393172280513681, 4174789.335171527694911 ], [ 696027.87236899533309, 4174857.554790084250271 ], [ 696105.581730592413805, 4175005.434084026142955 ], [ 696241.073193016694859, 4175095.149602190125734 ], [ 696330.518345506745391, 4175176.189039763063192 ], [ 696418.746278193430044, 4175308.309687576256692 ], [ 696600.840002308483236, 4175240.753706716932356 ], [ 696675.974023149814457, 4175093.704699913039804 ], [ 696713.274425737676211, 4174948.560315630398691 ], [ 696889.453068897593766, 4174774.708406280260533 ], [ 697015.885568185476586, 4174676.62079453188926 ], [ 697104.036364855011925, 4174481.007092352956533 ], [ 697125.986472827615216, 4174223.14294431079179 ], [ 697122.866427986766212, 4174070.278657932765782 ], [ 697193.201418190496042, 4173959.610628438182175 ], [ 697088.44170560920611, 4173905.42956488346681 ], [ 696973.261754866456613, 4173815.049219553358853 ], [ 696846.482074768166058, 4173737.875318328849971 ], [ 696657.258016497828066, 4173724.379314792808145 ], [ 696466.484326631529257, 4173776.013854329008609 ], [ 696166.038927283487283, 4173980.086152155417949 ], [ 696025.18646630900912, 4174210.418783922214061 ], [ 695987.3017215578584, 4174451.89663046784699 ], [ 696024.717243906459771, 4174610.340149901807308 ], [ 695977.912284760386683, 4174681.12495290255174 ], [ 695993.393172280513681, 4174789.335171527694911 ] ], [ [ 693419.471977442153729, 4174966.775589395314455 ], [ 693594.172300349222496, 4175213.500262305140495 ], [ 693897.446418894105591, 4175364.395943242125213 ], [ 694188.799613647162914, 4175254.425763725303113 ], [ 694382.324393656104803, 4175083.748350954148918 ], [ 694369.889599734917283, 4174845.313448241911829 ], [ 694291.990005565457977, 4174704.186041079927236 ], [ 694380.214613616233692, 4174598.420735901687294 ], [ 694381.731150515610352, 4174342.32615343015641 ], [ 694085.54618024546653, 4174272.44865584326908 ], [ 693930.806614186265506, 4174520.450845765415579 ], [ 693786.360565623035654, 4174714.769290075171739 ], [ 693617.074595173471607, 4174814.143920592032373 ], [ 693419.471977442153729, 4174966.775589395314455 ] ], [ [ 698598.204546093475074, 4170940.19217222975567 ], [ 698760.50281143153552, 4171137.402363794855773 ], [ 698514.271036912105046, 4171239.376556667964906 ], [ 698337.894541572313756, 4171064.313824040815234 ], [ 698598.204546093475074, 4170940.19217222975567 ] ], [ [ 699215.444661821471527, 4171741.743529793340713 ], [ 699121.710514663136564, 4171510.225736367981881 ], [ 699225.299633960239589, 4171332.906782099511474 ], [ 699506.072361515834928, 4171483.532181988470256 ], [ 699424.494718077359721, 4171683.852213174570352 ], [ 699215.444661821471527, 4171741.743529793340713 ] ], [ [ 699469.820670250570402, 4170740.889309388585389 ], [ 699687.224544019205496, 4170898.992653472349048 ], [ 699871.617046160739847, 4170741.602401718031615 ], [ 699961.91205581673421, 4170554.960913823917508 ], [ 699874.708941384451464, 4170426.966534721199423 ], [ 699794.51275518827606, 4170195.73167441226542 ], [ 699299.733944003703073, 4170305.183320948388427 ], [ 699214.362108941422775, 4170662.796981137711555 ], [ 699469.820670250570402, 4170740.889309388585389 ] ] ] ] } }
]
}
